NORAD_CAT_ID,OBJECT_NAME,OBJECT_TYPE,EPOCH,MEAN_MOTION,ECCENTRICITY,INCLINATION,RA_OF_ASC_NODE,ARG_OF_PERICENTER,MEAN_ANOMALY,BSTAR,MEAN_MOTION_DOT,MEAN_MOTION_DDOT,TLE_LINE0,TLE_LINE1,TLE_LINE2,SEMIMAJOR_AXIS,PERIOD,APOGEE,PERIGEE,DECAYED
50838.0,STARLINK-3322,PAYLOAD,2023-11-26 09:57:44,15.08830501,0.0001287,53.217,319.8607,81.8279,278.2859,0.00017506,2.499e-05,0.0,0 STARLINK-3322,1 50838U 22001AM  23330.41510055  .00002499  00000-0  17506-3 0  9997,2 50838  53.2170 319.8607 0001287  81.8279 278.2859 15.08830501105582,6917.909,95.438,540.665,538.884,0.0
50838.0,STARLINK-3322,PAYLOAD,2023-11-27 03:27:00,15.08810235,0.0001251,53.2169,316.5869,94.5329,265.5806,0.00097532,0.00015256,0.0,0 STARLINK-3322,1 50838U 22001AM  23331.14375884  .00015256  00000-0  97532-3 0  9999,2 50838  53.2169 316.5869 0001251  94.5329 265.5806 15.08810235105697,6917.971,95.439,540.702,538.971,0.0
50838.0,STARLINK-3322,PAYLOAD,2023-11-27 08:13:10,15.08819651,0.0001305,53.2169,315.6954,95.7132,264.4009,0.0010684,0.00016747,0.0,0 STARLINK-3322,1 50838U 22001AM  23331.34248099  .00016747  00000-0  10684-2 0  9996,2 50838  53.2169 315.6954 0001305  95.7132 264.4009 15.08819651104522,6917.943,95.439,540.71,538.905,0.0
50838.0,STARLINK-3322,PAYLOAD,2023-11-27 22:31:38,15.08858022,0.0001329,53.2166,313.0185,97.7781,262.3362,0.0015762,0.00024899,0.0,0 STARLINK-3322,1 50838U 22001AM  23331.93863916  .00024899  00000-0  15762-2 0  9991,2 50838  53.2166 313.0185 0001329  97.7781 262.3362 15.08858022105812,6917.825,95.436,540.61,538.771,0.0
50838.0,STARLINK-3322,PAYLOAD,2023-11-28 06:28:33,15.08882469,0.000136,53.2166,311.5321,98.3174,261.7973,0.0018154,0.00028756,0.0,0 STARLINK-3322,1 50838U 22001AM  23332.26983110  .00028756  00000-0  18154-2 0  9991,2 50838  53.2166 311.5321 0001360  98.3174 261.7973 15.08882469104660,6917.751,95.435,540.556,538.675,0.0
50838.0,STARLINK-3322,PAYLOAD,2023-11-28 22:22:22,15.08914419,0.0001407,53.2166,308.5644,101.1085,259.0065,0.0016718,0.00026473,0.0,0 STARLINK-3322,1 50838U 22001AM  23332.93220697  .00026473  00000-0  16718-2 0  9997,2 50838  53.2166 308.5644 0001407 101.1085 259.0065 15.08914419104764,6917.653,95.433,540.491,538.545,0.0
50838.0,STARLINK-3322,PAYLOAD,2023-11-29 07:54:41,15.08869523,0.0001449,53.2168,306.777,69.4377,290.6771,0.0020201,0.00032034,0.0,0 STARLINK-3322,1 50838U 22001AM  23333.32964473  .00032034  00000-0  20201-2 0  9990,2 50838  53.2168 306.7770 0001449  69.4377 290.6771 15.08869523106023,6917.79,95.436,540.658,538.653,0.0
50838.0,STARLINK-3322,PAYLOAD,2023-11-30 02:59:20,15.08834349,0.000129,53.2171,303.2099,111.0224,249.0906,0.0020587,0.00032623,0.0,0 STARLINK-3322,1 50838U 22001AM  23334.12453961  .00032623  00000-0  20587-2 0  9995,2 50838  53.2171 303.2099 0001290 111.0224 249.0906 15.08834349106141,6917.898,95.438,540.655,538.87,0.0
50838.0,STARLINK-3322,PAYLOAD,2023-11-30 07:45:29,15.08831133,0.000143,53.2169,302.318,106.1651,253.9498,0.0014943,0.00023568,0.0,0 STARLINK-3322,1 50838U 22001AM  23334.32326206  .00023568  00000-0  14943-2 0  9995,2 50838  53.2169 302.3180 0001430 106.1651 253.9498 15.08831133106175,6917.907,95.438,540.762,538.783,0.0
50838.0,STARLINK-3322,PAYLOAD,2023-12-01 04:25:30,15.08815296,0.0001421,53.2177,298.4494,100.6386,259.4766,0.00035243,5.322e-05,0.0,0 STARLINK-3322,1 50838U 22001AM  23335.18438095  .00005322  00000-0  35243-3 0  9995,2 50838  53.2177 298.4494 0001421 100.6386 259.4766 15.08815296106307,6917.956,95.439,540.804,538.838,0.0
50838.0,STARLINK-3322,PAYLOAD,2023-12-02 01:05:31,15.0887493,0.0001295,53.2179,294.5866,95.2791,264.8349,0.0021773,0.00034567,0.0,0 STARLINK-3322,1 50838U 22001AM  23336.04549829  .00034567  00000-0  21773-2 0  9994,2 50838  53.2179 294.5866 0001295  95.2791 264.8349 15.08874930106438,6917.774,95.435,540.534,538.743,0.0
50838.0,STARLINK-3322,PAYLOAD,2023-12-02 07:27:02,15.08959147,0.0001442,53.2177,293.3961,97.9524,262.1632,0.0062313,0.0010063,0.0,0 STARLINK-3322,1 50838U 22001AM  23336.31044401  .00100630  00000-0  62313-2 0  9990,2 50838  53.2177 293.3961 0001442  97.9524 262.1632 15.08959147106470,6917.516,95.43,540.379,538.384,0.0
50838.0,STARLINK-3322,PAYLOAD,2023-12-03 02:31:36,15.08926415,0.0001533,53.2174,289.8244,109.957,250.1587,0.00063055,9.785e-05,0.0,0 STARLINK-3322,1 50838U 22001AM  23337.10528348  .00009785  00000-0  63055-3 0  9999,2 50838  53.2174 289.8244 0001533 109.9570 250.1587 15.08926415106598,6917.616,95.432,540.542,538.421,0.0
50838.0,STARLINK-3322,PAYLOAD,2023-12-03 05:42:22,15.08931177,0.0001529,53.2176,289.229,110.202,249.9137,0.00075093,0.00011713,0.0,0 STARLINK-3322,1 50838U 22001AM  23337.23775524  .00011713  00000-0  75093-3 0  9992,2 50838  53.2176 289.2290 0001529 110.2020 249.9137 15.08931177105413,6917.602,95.432,540.524,538.409,0.0
50838.0,STARLINK-3322,PAYLOAD,2023-12-03 20:00:46,15.0895856,0.0001255,53.2177,286.556,126.4591,233.6517,0.0010755,0.00016926,0.0,0 STARLINK-3322,1 50838U 22001AM  23337.83386983  .00016926  00000-0  10755-2 0  9999,2 50838  53.2177 286.5560 0001255 126.4591 233.6517 15.08958560106702,6917.518,95.43,540.251,538.515,0.0
50838.0,STARLINK-3322,PAYLOAD,2023-12-04 03:57:39,15.08986458,0.0001273,53.2172,285.0705,89.3479,270.7659,0.0015717,0.00024915,0.0,0 STARLINK-3322,1 50838U 22001AM  23338.16504001  .00024915  00000-0  15717-2 0  9999,2 50838  53.2172 285.0705 0001273  89.3479 270.7659 15.08986458106755,6917.433,95.428,540.178,538.417,0.0
50838.0,STARLINK-3322,PAYLOAD,2023-12-04 05:33:02,15.08988496,0.0001278,53.2172,284.7731,89.4426,270.6713,0.0014257,0.00022567,0.0,0 STARLINK-3322,1 50838U 22001AM  23338.23127336  .00022567  00000-0  14257-2 0  9998,2 50838  53.2172 284.7731 0001278  89.4426 270.6713 15.08988496105560,6917.427,95.428,540.176,538.407,0.0
50838.0,STARLINK-3322,PAYLOAD,2023-12-05 05:23:38,15.09046892,0.0001308,53.2163,280.3125,92.3494,267.7648,0.0016828,0.00026748,0.0,0 STARLINK-3322,1 50838U 22001AM  23339.22475365  .00026748  00000-0  16828-2 0  9997,2 50838  53.2163 280.3125 0001308  92.3494 267.7648 15.09046892106911,6917.248,95.424,540.018,538.208,0.0
50838.0,STARLINK-3322,PAYLOAD,2023-12-06 05:14:12,15.09100312,0.000138,53.2162,275.8504,94.6047,265.5103,0.0016545,0.0002633,0.0,0 STARLINK-3322,1 50838U 22001AM  23340.21819863  .00026330  00000-0  16545-2 0  9996,2 50838  53.2162 275.8504 0001380  94.6047 265.5103 15.09100312105862,6917.085,95.421,539.904,537.995,0.0
50838.0,STARLINK-3322,PAYLOAD,2023-12-07 01:53:59,15.09140643,0.0001469,53.2165,271.983,91.6039,268.5122,0.001475,0.00023459,0.0,0 STARLINK-3322,1 50838U 22001AM  23341.07915790  .00023459  00000-0  14750-2 0  9992,2 50838  53.2165 271.9830 0001469  91.6039 268.5122 15.09140643107193,6916.962,95.419,539.843,537.81,0.0
50838.0,STARLINK-3322,PAYLOAD,2023-12-08 01:44:27,15.09180366,0.0001481,53.2168,267.5227,91.2114,268.9048,0.0012481,0.00019817,0.0,0 STARLINK-3322,1 50838U 22001AM  23342.07254577  .00019817  00000-0  12481-2 0  9994,2 50838  53.2168 267.5227 0001481  91.2114 268.9048 15.09180366107345,6916.84,95.416,539.73,537.681,0.0
50838.0,STARLINK-3322,PAYLOAD,2023-12-08 19:13:27,15.09207979,0.0001422,53.2167,264.2508,93.7113,266.4042,0.0011888,0.00018874,0.0,0 STARLINK-3322,1 50838U 22001AM  23342.80101397  .00018874  00000-0  11888-2 0  9998,2 50838  53.2167 264.2508 0001422  93.7113 266.4042 15.09207979106257,6916.756,95.414,539.604,537.637,0.0
50838.0,STARLINK-3322,PAYLOAD,2023-12-09 01:34:54,15.09217967,0.0001627,53.218,263.0603,104.6489,255.4684,0.0011845,0.0001881,0.0,0 STARLINK-3322,1 50838U 22001AM  23343.06590777  .00018810  00000-0  11845-2 0  9994,2 50838  53.2180 263.0603 0001627 104.6489 255.4684 15.09217967106292,6916.725,95.414,539.716,537.465,0.0
50838.0,STARLINK-3322,PAYLOAD,2023-12-09 19:03:52,15.09239169,0.0001793,53.219,259.7879,112.9906,247.1276,0.00098149,0.00015538,0.0,0 STARLINK-3322,1 50838U 22001AM  23343.79435949  .00015538  00000-0  98149-3 0  9990,2 50838  53.2190 259.7879 0001793 112.9906 247.1276 15.09239169107609,6916.661,95.412,539.766,537.285,0.0
50838.0,STARLINK-3322,PAYLOAD,2023-12-10 07:46:56,15.08858812,0.0001755,53.2189,257.4077,124.2277,235.8882,-0.010574,-0.00164835,0.0,0 STARLINK-3322,1 50838U 22001AM  23344.32426459 -.00164835  00000-0 -10574-1 0  9997,2 50838  53.2189 257.4077 0001755 124.2277 235.8882 15.08858812107683,6917.823,95.436,540.902,538.474,0.0
50838.0,STARLINK-3322,PAYLOAD,2023-12-10 22:05:38,15.08465409,0.0001563,53.2187,254.7347,141.5435,218.5669,-0.0093833,-0.00145135,0.0,0 STARLINK-3322,1 50838U 22001AM  23344.92058455 -.00145135  00000-0 -93833-2 0  9992,2 50838  53.2187 254.7347 0001563 141.5435 218.5669 15.08465409106570,6919.026,95.461,541.972,539.809,0.0
50838.0,STARLINK-3322,PAYLOAD,2023-12-11 09:13:45,15.07956356,0.0001646,53.2185,252.6587,99.0917,261.0261,-0.014946,-0.00225291,0.0,0 STARLINK-3322,1 50838U 22001AM  23345.38455447 -.00225291  00000-0 -14946-1 0  9994,2 50838  53.2185 252.6587 0001646  99.0917 261.0261 15.07956356106649,6920.583,95.493,543.587,541.309,0.0
50838.0,STARLINK-3322,PAYLOAD,2023-12-11 22:00:01,15.08034751,0.0001113,53.2165,250.2685,104.7619,265.8758,-0.00068129,-0.00010877,0.0,0 STARLINK-3322,1 50838U 22001AM  23345.91668981 -.00010877  00000-0 -68129-3 0  9998,2 50838  53.2165 250.2685 0001113 104.7619 265.8758 15.08034751107924,6920.343,95.489,542.978,541.438,0.0
50838.0,STARLINK-3322,PAYLOAD,2023-12-12 06:00:00,15.07959335,0.0001084,53.2159,248.7748,97.1463,284.0628,0.016865,0.00272048,0.0,0 STARLINK-3322,1 50838U 22001AM  23346.25001157  .00272048  00000-0  16865-1 0  9998,2 50838  53.2159 248.7748 0001084  97.1463 284.0628 15.07959335107975,6920.574,95.493,543.189,541.688,0.0
50838.0,STARLINK-3322,PAYLOAD,2023-12-12 14:00:01,15.08106223,0.0001124,53.2157,247.2787,110.1283,281.7217,0.032534,0.00541501,0.0,0 STARLINK-3322,1 50838U 22001AM  23346.58334491  .00541501  00000-0  32534-1 0  9998,2 50838  53.2157 247.2787 0001124 110.1283 281.7217 15.08106223108027,6920.124,95.484,542.767,541.211,0.0
